{"type": "FeatureCollection", "features": [ {"type": "Feature", "properties": {"norad_id": 34979, "name": "COSMOS 2251 DEB", "group": "cosmos-2251-debris", "lat": -73.96478921195747, "lon": 175.28268576962645, "alt_km": 623.73455009993, "timestamp": "2025-12-16T10:53:45.866805+00:00", "meta": {"OBJECT_NAME": "COSMOS 2251 DEB", "OBJECT_ID": "1993-036AFJ", "EPOCH": "2025-12-15T19:03:47.068992", "MEAN_MOTION": 14.79414355, "ECCENTRICITY": 0.00491466, "INCLINATION": 74.0407, "RA_OF_ASC_NODE": 261.2529, "ARG_OF_PERICENTER": 338.5418, "MEAN_ANOMALY": 21.3696, "EPHEMERIS_TYPE": 0, "CLASSIFICATION_TYPE": "U", "NORAD_CAT_ID": 34979, "ELEMENT_SET_NO": 999, "REV_AT_EPOCH": 88265, "BSTAR": 0.00078199821, "MEAN_MOTION_DOT": 5.924e-05, "MEAN_MOTION_DDOT": 0}, "tle": {"line1": "1 34979U 93036AFJ 25349.79429478  .00005924  00000+0  78200-3 0  9995", "line2": "2 34979  74.0407 261.2529 0049146 338.5418  21.3696 14.79414355882658"}}, "geometry": {"type": "Point", "coordinates": [175.28268576962645, -73.96478921195747]}}, {"type": "Feature", "properties": {"norad_id": 34990, "name": "COSMOS 2251 DEB", "group": "cosmos-2251-debris", "lat": -57.64205286040246, "lon": 91.29073317207754, "alt_km": 752.4460930882069, "timestamp": "2025-12-16T10:53:45.866816+00:00", "meta": {"OBJECT_NAME": "COSMOS 2251 DEB", "OBJECT_ID": "1993-036AFN", "EPOCH": "2025-12-15T10:28:28.781472", "MEAN_MOTION": 14.42382837, "ECCENTRICITY": 0.00165597, "INCLINATION": 74.0457, "RA_OF_ASC_NODE": 246.3361, "ARG_OF_PERICENTER": 308.9911, "MEAN_ANOMALY": 50.977, "EPHEMERIS_TYPE": 0, "CLASSIFICATION_TYPE": "U", "NORAD_CAT_ID": 34990, "ELEMENT_SET_NO": 999, "REV_AT_EPOCH": 87385, "BSTAR": 0.00031884459, "MEAN_MOTION_DOT": 1.029e-05, "MEAN_MOTION_DDOT": 0}, "tle": {"line1": "1 34990U 93036AFN 25349.43644423  .00001029  00000+0  31884-3 0  9997", "line2": "2 34990  74.0457 246.3361 0016559 308.9911  50.9770 14.42382837873857"}}, "geometry": {"type": "Point", "coordinates": [91.29073317207754, -57.64205286040246]}}, {"type": "Feature", "properties": {"norad_id": 34997, "name": "COSMOS 2251 DEB", "group": "cosmos-2251-debris", "lat": 73.86824584827934, "lon": 35.21739572129012, "alt_km": 801.3804347729119, "timestamp": "2025-12-16T10:53:45.866827+00:00", "meta": {"OBJECT_NAME": "COSMOS 2251 DEB", "OBJECT_ID": "1993-036AFV", "EPOCH": "2025-12-14T03:40:01.084512", "MEAN_MOTION": 14.45585468, "ECCENTRICITY": 0.00977103, "INCLINATION": 73.8806, "RA_OF_ASC_NODE": 308.5363, "ARG_OF_PERICENTER": 283.3348, "MEAN_ANOMALY": 75.6929, "EPHEMERIS_TYPE": 0, "CLASSIFICATION_TYPE": "U", "NORAD_CAT_ID": 34997, "ELEMENT_SET_NO": 999, "REV_AT_EPOCH": 70767, "BSTAR": 0.0019000145, "MEAN_MOTION_DOT": 7.095e-05, "MEAN_MOTION_DDOT": 0}, "tle": {"line1": "1 34997U 93036AFV 25348.15279033  .00007095  00000+0  19000-2 0  9997", "line2": "2 34997  73.8806 308.5363 0097710 283.3348  75.6929 14.45585468707674"}}, "geometry": {"type": "Point", "coordinates": [35.21739572129012, 73.86824584827934]}}, {"type": "Feature", "properties": {"norad_id": 34998, "name": "COSMOS 2251 DEB", "group": "cosmos-2251-debris", "lat": 18.03888302912955, "lon": 158.3656701572289, "alt_km": 725.616115785323, "timestamp": "2025-12-16T10:53:45.866837+00:00", "meta": {"OBJECT_NAME": "COSMOS 2251 DEB", "OBJECT_ID": "1993-036AFW", "EPOCH": "2025-12-14T12:41:32.006688", "MEAN_MOTION": 14.49289974, "ECCENTRICITY": 0.00211879, "INCLINATION": 74.0093, "RA_OF_ASC_NODE": 156.6225, "ARG_OF_PERICENTER": 301.7782, "MEAN_ANOMALY": 116.5134, "EPHEMERIS_TYPE": 0, "CLASSIFICATION_TYPE": "U", "NORAD_CAT_ID": 34998, "ELEMENT_SET_NO": 999, "REV_AT_EPOCH": 87446, "BSTAR": 0.0006296674, "MEAN_MOTION_DOT": 2.382e-05, "MEAN_MOTION_DDOT": 0}, "tle": {"line1": "1 34998U 93036AFW 25348.52884267  .00002382  00000+0  62967-3 0  9995", "line2": "2 34998  74.0093 156.6225 0021187 301.7782 116.5134 14.49289974874469"}}, "geometry": {"type": "Point", "coordinates": [158.3656701572289, 18.03888302912955]}}, {"type": "Feature", "properties": {"norad_id": 35000, "name": "COSMOS 2251 DEB", "group": "cosmos-2251-debris", "lat": 47.56213940712168, "lon": -152.64026949289016, "alt_km": 157.67320293479497, "timestamp": "2025-12-16T10:53:45.866847+00:00", "meta": {"OBJECT_NAME": "COSMOS 2251 DEB", "OBJECT_ID": "1993-036AFY", "EPOCH": "2025-12-10T00:39:45.535104", "MEAN_MOTION": 15.84722247, "ECCENTRICITY": 0.00096992, "INCLINATION": 73.9939, "RA_OF_ASC_NODE": 204.1935, "ARG_OF_PERICENTER": 175.3945, "MEAN_ANOMALY": 184.7377, "EPHEMERIS_TYPE": 0, "CLASSIFICATION_TYPE": "U", "NORAD_CAT_ID": 35000, "ELEMENT_SET_NO": 999, "REV_AT_EPOCH": 88472, "BSTAR": 0.007821664, "MEAN_MOTION_DOT": 0.0209211, "MEAN_MOTION_DDOT": 0}, "tle": {"line1": "1 35000U 93036AFY 25344.02761036  .02092110  00000+0  78217-2 0  9993", "line2": "2 35000  73.9939 204.1935 0009699 175.3945 184.7377 15.84722247884729"}}, "geometry": {"type": "Point", "coordinates": [-152.64026949289016, 47.56213940712168]}}, {"type": "Feature", "properties": {"norad_id": 35012, "name": "COSMOS 2251 DEB", "group": "cosmos-2251-debris", "lat": -53.81547115224775, "lon": 81.7429539970375, "alt_km": 716.4503522514615, "timestamp": "2025-12-16T10:53:45.866857+00:00", "meta": {"OBJECT_NAME": "COSMOS 2251 DEB", "OBJECT_ID": "1993-036AFZ", "EPOCH": "2025-12-14T14:18:50.707008", "MEAN_MOTION": 14.45551422, "ECCENTRICITY": 0.00815929, "INCLINATION": 74.0205, "RA_OF_ASC_NODE": 108.2711, "ARG_OF_PERICENTER": 248.0498, "MEAN_ANOMALY": 111.1974, "EPHEMERIS_TYPE": 0, "CLASSIFICATION_TYPE": "U", "NORAD_CAT_ID": 35012, "ELEMENT_SET_NO": 999, "REV_AT_EPOCH": 87588, "BSTAR": 0.00022143497, "MEAN_MOTION_DOT": 7.85e-06, "MEAN_MOTION_DDOT": 0}, "tle": {"line1": "1 35012U 93036AFZ 25348.59642022  .00000785  00000+0  22143-3 0  9998", "line2": "2 35012  74.0205 108.2711 0081592 248.0498 111.1974 14.45551422875884"}}, "geometry": {"type": "Point", "coordinates": [81.7429539970375, -53.81547115224775]}}, {"type": "Feature", "properties": {"norad_id": 35014, "name": "COSMOS 2251 DEB", "group": "cosmos-2251-debris", "lat": 73.29626771146162, "lon": 109.23710908286354, "alt_km": 640.0946059055241, "timestamp": "2025-12-16T10:53:45.866868+00:00", "meta": {"OBJECT_NAME": "COSMOS 2251 DEB", "OBJECT_ID": "1993-036AGB", "EPOCH": "2025-12-15T10:05:53.714976", "MEAN_MOTION": 14.75246111, "ECCENTRICITY": 0.00071618, "INCLINATION": 74, "RA_OF_ASC_NODE": 38.2838, "ARG_OF_PERICENTER": 216.2396, "MEAN_ANOMALY": 143.8294, "EPHEMERIS_TYPE": 0, "CLASSIFICATION_TYPE": "U", "NORAD_CAT_ID": 35014, "ELEMENT_SET_NO": 999, "REV_AT_EPOCH": 71376, "BSTAR": 0.00097651538, "MEAN_MOTION_DOT": 6.583e-05, "MEAN_MOTION_DDOT": 0}, "tle": {"line1": "1 35014U 93036AGB 25349.42076059  .00006583  00000+0  97652-3 0  9993", "line2": "2 35014  74.0000  38.2838 0007161 216.2396 143.8294 14.75246111713769"}}, "geometry": {"type": "Point", "coordinates": [109.23710908286354, 73.29626771146162]}}, {"type": "Feature", "properties": {"norad_id": 35015, "name": "COSMOS 2251 DEB", "group": "cosmos-2251-debris", "lat": 72.92549037885144, "lon": -21.864374958165723, "alt_km": 675.6193889877732, "timestamp": "2025-12-16T10:53:45.866878+00:00", "meta": {"OBJECT_NAME": "COSMOS 2251 DEB", "OBJECT_ID": "1993-036AGC", "EPOCH": "2025-12-15T22:56:26.813760", "MEAN_MOTION": 14.46895598, "ECCENTRICITY": 0.0074243, "INCLINATION": 73.9481, "RA_OF_ASC_NODE": 228.6843, "ARG_OF_PERICENTER": 96.6585, "MEAN_ANOMALY": 285.5342, "EPHEMERIS_TYPE": 0, "CLASSIFICATION_TYPE": "U", "NORAD_CAT_ID": 35015, "ELEMENT_SET_NO": 999, "REV_AT_EPOCH": 65487, "BSTAR": 0.00054698056, "MEAN_MOTION_DOT": 2.026e-05, "MEAN_MOTION_DDOT": 0}, "tle": {"line1": "1 35015U 93036AGC 25349.95586590  .00002026  00000+0  54698-3 0  9999", "line2": "2 35015  73.9481 228.6843 0074243  96.6585 285.5342 14.46895598654878"}}, "geometry": {"type": "Point", "coordinates": [-21.864374958165723, 72.92549037885144]}}, {"type": "Feature", "properties": {"norad_id": 35016, "name": "COSMOS 2251 DEB", "group": "cosmos-2251-debris", "lat": -37.27069767631574, "lon": -85.10160672346481, "alt_km": 817.591768027929, "timestamp": "2025-12-16T10:53:45.866889+00:00", "meta": {"OBJECT_NAME": "COSMOS 2251 DEB", "OBJECT_ID": "1993-036AGD", "EPOCH": "2025-12-14T14:45:32.916384", "MEAN_MOTION": 14.35064603, "ECCENTRICITY": 0.01144143, "INCLINATION": 73.9301, "RA_OF_ASC_NODE": 290.9619, "ARG_OF_PERICENTER": 207.5533, "MEAN_ANOMALY": 335.1759, "EPHEMERIS_TYPE": 0, "CLASSIFICATION_TYPE": "U", "NORAD_CAT_ID": 35016, "ELEMENT_SET_NO": 999, "REV_AT_EPOCH": 86809, "BSTAR": 0.00038793382, "MEAN_MOTION_DOT": 1.163e-05, "MEAN_MOTION_DDOT": 0}, "tle": {"line1": "1 35016U 93036AGD 25348.61496431  .00001163  00000+0  38793-3 0  9995", "line2": "2 35016  73.9301 290.9619 0114414 207.5533 335.1759 14.35064603868092"}}, "geometry": {"type": "Point", "coordinates": [-85.10160672346481, -37.27069767631574]}}, {"type": "Feature", "properties": {"norad_id": 35018, "name": "COSMOS 2251 DEB", "group": "cosmos-2251-debris", "lat": -46.98475603484333, "lon": -58.19416808650852, "alt_km": 1218.1470132305922, "timestamp": "2025-12-16T10:53:45.866899+00:00", "meta": {"OBJECT_NAME": "COSMOS 2251 DEB", "OBJECT_ID": "1993-036AGF", "EPOCH": "2025-12-14T01:34:23.097504", "MEAN_MOTION": 13.6711728, "ECCENTRICITY": 0.03485759, "INCLINATION": 73.9758, "RA_OF_ASC_NODE": 107.7987, "ARG_OF_PERICENTER": 16.6862, "MEAN_ANOMALY": 344.5383, "EPHEMERIS_TYPE": 0, "CLASSIFICATION_TYPE": "U", "NORAD_CAT_ID": 35018, "ELEMENT_SET_NO": 999, "REV_AT_EPOCH": 83204, "BSTAR": 0.00097087301, "MEAN_MOTION_DOT": 1.216e-05, "MEAN_MOTION_DDOT": 0}, "tle": {"line1": "1 35018U 93036AGF 25348.06554511  .00001216  00000+0  97087-3 0  9990", "line2": "2 35018  73.9758 107.7987 0348575  16.6862 344.5383 13.67117280832041"}}, "geometry": {"type": "Point", "coordinates": [-58.19416808650852, -46.98475603484333]}}]}